{
  "links" : {
    "next" : "https://api.nasa.gov/neo/rest/v1/feed?start_date=2011-05-09&end_date=2011-05-09&detailed=true&api_key=t0TVs3DtDT2H8Oy2Zy8m2eVrNsAVKAexjcZXUckd",
    "prev" : "https://api.nasa.gov/neo/rest/v1/feed?start_date=2011-05-07&end_date=2011-05-07&detailed=true&api_key=t0TVs3DtDT2H8Oy2Zy8m2eVrNsAVKAexjcZXUckd",
    "self" : "https://api.nasa.gov/neo/rest/v1/feed?start_date=2011-05-08&end_date=2011-05-08&detailed=true&api_key=t0TVs3DtDT2H8Oy2Zy8m2eVrNsAVKAexjcZXUckd"
  },
  "element_count" : 11,
  "near_earth_objects" : {
    "2011-05-08" : [ {
      "links" : {
        "self" : "https://api.nasa.gov/neo/rest/v1/neo/3567657?api_key=t0TVs3DtDT2H8Oy2Zy8m2eVrNsAVKAexjcZXUckd"
      },
      "neo_reference_id" : "3567657",
      "name" : "(2011 LY2)",
      "nasa_jpl_url" : "http://ssd.jpl.nasa.gov/sbdb.cgi?sstr=3567657",
      "absolute_magnitude_h" : 21.2,
      "estimated_diameter" : {
        "kilometers" : {
          "estimated_diameter_min" : 0.1529519353,
          "estimated_diameter_max" : 0.3420109247
        },
        "meters" : {
          "estimated_diameter_min" : 152.9519353442,
          "estimated_diameter_max" : 342.0109247198
        },
        "miles" : {
          "estimated_diameter_min" : 0.095039897,
          "estimated_diameter_max" : 0.2125156703
        },
        "feet" : {
          "estimated_diameter_min" : 501.8108275547,
          "estimated_diameter_max" : 1122.0831222578
        }
      },
      "is_potentially_hazardous_asteroid" : false,
      "close_approach_data" : [ {
        "close_approach_date" : "2011-05-08",
        "epoch_date_close_approach" : 1304838000000,
        "relative_velocity" : {
          "kilometers_per_second" : "6.4757044681",
          "kilometers_per_hour" : "23312.5360850786",
          "miles_per_hour" : "14485.5033246423"
        },
        "miss_distance" : {
          "astronomical" : "0.3442725639",
          "lunar" : "133.9220275879",
          "kilometers" : "51502440",
          "miles" : "32002134"
        },
        "orbiting_body" : "Earth"
      } ],
      "orbital_data" : {
        "orbit_id" : "7",
        "orbit_determination_date" : "2017-04-06 08:53:20",
        "orbit_uncertainty" : "8",
        "minimum_orbit_intersection" : ".190768",
        "jupiter_tisserand_invariant" : "4.549",
        "epoch_osculation" : "2455719.5",
        "eccentricity" : ".2763588835250668",
        "semi_major_axis" : "1.464709655114033",
        "inclination" : "12.29515424441136",
        "ascending_node_longitude" : "74.73169629398249",
        "orbital_period" : "647.4790836627091",
        "perihelion_distance" : "1.059924130138333",
        "perihelion_argument" : "77.96296473281338",
        "aphelion_distance" : "1.869495180089733",
        "perihelion_time" : "2455596.379531530155",
        "mean_anomaly" : "68.4552903213682",
        "mean_motion" : ".5560025166581822",
        "equinox" : "J2000"
      }
    }, {
      "links" : {
        "self" : "https://api.nasa.gov/neo/rest/v1/neo/2424482?api_key=t0TVs3DtDT2H8Oy2Zy8m2eVrNsAVKAexjcZXUckd"
      },
      "neo_reference_id" : "2424482",
      "name" : "424482 (2008 DG5)",
      "nasa_jpl_url" : "http://ssd.jpl.nasa.gov/sbdb.cgi?sstr=2424482",
      "absolute_magnitude_h" : 19.6,
      "estimated_diameter" : {
        "kilometers" : {
          "estimated_diameter_min" : 0.3195618867,
          "estimated_diameter_max" : 0.7145621017
        },
        "meters" : {
          "estimated_diameter_min" : 319.5618867213,
          "estimated_diameter_max" : 714.5621017269
        },
        "miles" : {
          "estimated_diameter_min" : 0.1985664891,
          "estimated_diameter_max" : 0.4440081677
        },
        "feet" : {
          "estimated_diameter_min" : 1048.4314204307,
          "estimated_diameter_max" : 2344.3639258298
        }
      },
      "is_potentially_hazardous_asteroid" : true,
      "close_approach_data" : [ {
        "close_approach_date" : "2011-05-08",
        "epoch_date_close_approach" : 1304838000000,
        "relative_velocity" : {
          "kilometers_per_second" : "18.2460849835",
          "kilometers_per_hour" : "65685.9059404679",
          "miles_per_hour" : "40814.6674995091"
        },
        "miss_distance" : {
          "astronomical" : "0.4161721229",
          "lunar" : "161.8909606934",
          "kilometers" : "62258464",
          "miles" : "38685616"
        },
        "orbiting_body" : "Earth"
      } ],
      "orbital_data" : {
        "orbit_id" : "43",
        "orbit_determination_date" : "2017-04-06 09:21:03",
        "orbit_uncertainty" : "0",
        "minimum_orbit_intersection" : ".0189655",
        "jupiter_tisserand_invariant" : "5.092",
        "epoch_osculation" : "2458000.5",
        "eccentricity" : ".2426568058903197",
        "semi_major_axis" : "1.255773245344306",
        "inclination" : "5.706730478866622",
        "ascending_node_longitude" : "244.0456597466255",
        "orbital_period" : "514.0025409585492",
        "perihelion_distance" : ".9510513207065359",
        "perihelion_argument" : "59.66308688314998",
        "aphelion_distance" : "1.560495169982076",
        "perihelion_time" : "2457793.087085612858",
        "mean_anomaly" : "145.2690273478486",
        "mean_motion" : ".7003856427025554",
        "equinox" : "J2000"
      }
    }, {
      "links" : {
        "self" : "https://api.nasa.gov/neo/rest/v1/neo/3602934?api_key=t0TVs3DtDT2H8Oy2Zy8m2eVrNsAVKAexjcZXUckd"
      },
      "neo_reference_id" : "3602934",
      "name" : "(2012 HH20)",
      "nasa_jpl_url" : "http://ssd.jpl.nasa.gov/sbdb.cgi?sstr=3602934",
      "absolute_magnitude_h" : 24.4,
      "estimated_diameter" : {
        "kilometers" : {
          "estimated_diameter_min" : 0.0350392641,
          "estimated_diameter_max" : 0.0783501764
        },
        "meters" : {
          "estimated_diameter_min" : 35.0392641108,
          "estimated_diameter_max" : 78.3501764334
        },
        "miles" : {
          "estimated_diameter_min" : 0.0217723826,
          "estimated_diameter_max" : 0.0486845275
        },
        "feet" : {
          "estimated_diameter_min" : 114.9582192654,
          "estimated_diameter_max" : 257.0543928497
        }
      },
      "is_potentially_hazardous_asteroid" : false,
      "close_approach_data" : [ {
        "close_approach_date" : "2011-05-08",
        "epoch_date_close_approach" : 1304838000000,
        "relative_velocity" : {
          "kilometers_per_second" : "8.5762269164",
          "kilometers_per_hour" : "30874.4168990713",
          "miles_per_hour" : "19184.1619893146"
        },
        "miss_distance" : {
          "astronomical" : "0.3018490184",
          "lunar" : "117.4192657471",
          "kilometers" : "45155968",
          "miles" : "28058618"
        },
        "orbiting_body" : "Earth"
      } ],
      "orbital_data" : {
        "orbit_id" : "5",
        "orbit_determination_date" : "2017-04-06 08:49:56",
        "orbit_uncertainty" : "8",
        "minimum_orbit_intersection" : ".0500087",
        "jupiter_tisserand_invariant" : "5.857",
        "epoch_osculation" : "2456042.5",
        "eccentricity" : ".2924087986014776",
        "semi_major_axis" : "1.03408178777373",
        "inclination" : "14.45942975033439",
        "ascending_node_longitude" : "28.61011211471761",
        "orbital_period" : "384.0880196341541",
        "perihelion_distance" : ".7317071745551459",
        "perihelion_argument" : "64.3286965106108",
        "aphelion_distance" : "1.336456400992315",
        "perihelion_time" : "2455947.236458853762",
        "mean_anomaly" : "89.28910317304801",
        "mean_motion" : ".937285157560764",
        "equinox" : "J2000"
      }
    } ]
  }
}